{"type": "FeatureCollection", "features": [ {"type": "Feature", "properties": {"norad_id": 33980, "name": "COSMOS 2251 DEB", "group": "cosmos-2251-debris", "lat": -6.179451918361119, "lon": 54.05286941914621, "alt_km": 718.9290961954503, "timestamp": "2025-12-14T14:39:29.762339+00:00", "meta": {"OBJECT_NAME": "COSMOS 2251 DEB", "OBJECT_ID": "1993-036FP", "EPOCH": "2025-12-13T16:12:25.880256", "MEAN_MOTION": 14.58660558, "ECCENTRICITY": 0.00286425, "INCLINATION": 74.0219, "RA_OF_ASC_NODE": 57.6126, "ARG_OF_PERICENTER": 202.723, "MEAN_ANOMALY": 280.5429, "EPHEMERIS_TYPE": 0, "CLASSIFICATION_TYPE": "U", "NORAD_CAT_ID": 33980, "ELEMENT_SET_NO": 999, "REV_AT_EPOCH": 88808, "BSTAR": 0.00083109141, "MEAN_MOTION_DOT": 3.868e-05, "MEAN_MOTION_DDOT": 0}, "tle": {"line1": "1 33980U 93036FP  25347.67529954  .00003868  00000+0  83109-3 0  9990", "line2": "2 33980  74.0219  57.6126 0028642 202.7230 280.5429 14.58660558888083"}}, "geometry": {"type": "Point", "coordinates": [54.05286941914621, -6.179451918361119]}}, {"type": "Feature", "properties": {"norad_id": 33982, "name": "COSMOS 2251 DEB", "group": "cosmos-2251-debris", "lat": -37.04689928376083, "lon": -171.17832862588529, "alt_km": 751.567257624798, "timestamp": "2025-12-14T14:39:29.762349+00:00", "meta": {"OBJECT_NAME": "COSMOS 2251 DEB", "OBJECT_ID": "1993-036FR", "EPOCH": "2025-12-13T18:44:06.110592", "MEAN_MOTION": 14.60216979, "ECCENTRICITY": 0.00751016, "INCLINATION": 74.071, "RA_OF_ASC_NODE": 357.953, "ARG_OF_PERICENTER": 42.1321, "MEAN_ANOMALY": 134.4987, "EPHEMERIS_TYPE": 0, "CLASSIFICATION_TYPE": "U", "NORAD_CAT_ID": 33982, "ELEMENT_SET_NO": 999, "REV_AT_EPOCH": 89174, "BSTAR": 0.00055002261, "MEAN_MOTION_DOT": 2.729e-05, "MEAN_MOTION_DDOT": 0}, "tle": {"line1": "1 33982U 93036FR  25347.78062628  .00002729  00000+0  55002-3 0  9990", "line2": "2 33982  74.0710 357.9530 0075101  42.1321 134.4987 14.60216979891745"}}, "geometry": {"type": "Point", "coordinates": [-171.17832862588529, -37.04689928376083]}}, {"type": "Feature", "properties": {"norad_id": 33983, "name": "COSMOS 2251 DEB", "group": "cosmos-2251-debris", "lat": 73.62794138646119, "lon": -139.68720652554765, "alt_km": 730.2718633561526, "timestamp": "2025-12-14T14:39:29.762359+00:00", "meta": {"OBJECT_NAME": "COSMOS 2251 DEB", "OBJECT_ID": "1993-036FS", "EPOCH": "2025-12-13T22:26:36.984192", "MEAN_MOTION": 14.50677919, "ECCENTRICITY": 0.00213494, "INCLINATION": 74.0493, "RA_OF_ASC_NODE": 144.8003, "ARG_OF_PERICENTER": 247.7714, "MEAN_ANOMALY": 271.7211, "EPHEMERIS_TYPE": 0, "CLASSIFICATION_TYPE": "U", "NORAD_CAT_ID": 33983, "ELEMENT_SET_NO": 999, "REV_AT_EPOCH": 88646, "BSTAR": 0.00069487019, "MEAN_MOTION_DOT": 2.711e-05, "MEAN_MOTION_DDOT": 0}, "tle": {"line1": "1 33983U 93036FS  25347.93515028  .00002711  00000+0  69487-3 0  9998", "line2": "2 33983  74.0493 144.8003 0021349 247.7714 271.7211 14.50677919886468"}}, "geometry": {"type": "Point", "coordinates": [-139.68720652554765, 73.62794138646119]}}, {"type": "Feature", "properties": {"norad_id": 33984, "name": "COSMOS 2251 DEB", "group": "cosmos-2251-debris", "lat": -58.02510050142608, "lon": -43.85541621798714, "alt_km": 686.7156676788072, "timestamp": "2025-12-14T14:39:29.762369+00:00", "meta": {"OBJECT_NAME": "COSMOS 2251 DEB", "OBJECT_ID": "1993-036FT", "EPOCH": "2025-12-14T00:29:44.705184", "MEAN_MOTION": 14.66379857, "ECCENTRICITY": 0.00230452, "INCLINATION": 74.0097, "RA_OF_ASC_NODE": 344.6285, "ARG_OF_PERICENTER": 182.4499, "MEAN_ANOMALY": 241.5681, "EPHEMERIS_TYPE": 0, "CLASSIFICATION_TYPE": "U", "NORAD_CAT_ID": 33984, "ELEMENT_SET_NO": 999, "REV_AT_EPOCH": 89085, "BSTAR": 0.00093246091, "MEAN_MOTION_DOT": 5.146e-05, "MEAN_MOTION_DDOT": 0}, "tle": {"line1": "1 33984U 93036FT  25348.02065631  .00005146  00000+0  93246-3 0  9995", "line2": "2 33984  74.0097 344.6285 0023045 182.4499 241.5681 14.66379857890852"}}, "geometry": {"type": "Point", "coordinates": [-43.85541621798714, -58.02510050142608]}}, {"type": "Feature", "properties": {"norad_id": 33986, "name": "COSMOS 2251 DEB", "group": "cosmos-2251-debris", "lat": 29.149280695016, "lon": 110.01251426893234, "alt_km": 767.5209491744445, "timestamp": "2025-12-14T14:39:29.762379+00:00", "meta": {"OBJECT_NAME": "COSMOS 2251 DEB", "OBJECT_ID": "1993-036FV", "EPOCH": "2025-12-13T03:06:27.122112", "MEAN_MOTION": 14.43208756, "ECCENTRICITY": 0.004046, "INCLINATION": 74.0367, "RA_OF_ASC_NODE": 301.9487, "ARG_OF_PERICENTER": 14.506, "MEAN_ANOMALY": 1.6618, "EPHEMERIS_TYPE": 0, "CLASSIFICATION_TYPE": "U", "NORAD_CAT_ID": 33986, "ELEMENT_SET_NO": 999, "REV_AT_EPOCH": 88034, "BSTAR": 0.0012262721, "MEAN_MOTION_DOT": 4.14e-05, "MEAN_MOTION_DDOT": 0}, "tle": {"line1": "1 33986U 93036FV  25347.12948058  .00004140  00000+0  12263-2 0  9992", "line2": "2 33986  74.0367 301.9487 0040460  14.5060   1.6618 14.43208756880345"}}, "geometry": {"type": "Point", "coordinates": [110.01251426893234, 29.149280695016]}}, {"type": "Feature", "properties": {"norad_id": 33990, "name": "COSMOS 2251 DEB", "group": "cosmos-2251-debris", "lat": -62.972218888864305, "lon": -111.41634824609729, "alt_km": 780.4825955093702, "timestamp": "2025-12-14T14:39:29.762388+00:00", "meta": {"OBJECT_NAME": "COSMOS 2251 DEB", "OBJECT_ID": "1993-036FZ", "EPOCH": "2025-12-13T21:27:49.862304", "MEAN_MOTION": 13.49995973, "ECCENTRICITY": 0.04075241, "INCLINATION": 73.9287, "RA_OF_ASC_NODE": 284.1407, "ARG_OF_PERICENTER": 304.2408, "MEAN_ANOMALY": 108.1021, "EPHEMERIS_TYPE": 0, "CLASSIFICATION_TYPE": "U", "NORAD_CAT_ID": 33990, "ELEMENT_SET_NO": 999, "REV_AT_EPOCH": 82745, "BSTAR": 0.0015940954, "MEAN_MOTION_DOT": 1.675e-05, "MEAN_MOTION_DDOT": 0}, "tle": {"line1": "1 33990U 93036FZ  25347.89432711  .00001675  00000+0  15941-2 0  9991", "line2": "2 33990  73.9287 284.1407 0407524 304.2408 108.1021 13.49995973827459"}}, "geometry": {"type": "Point", "coordinates": [-111.41634824609729, -62.972218888864305]}}, {"type": "Feature", "properties": {"norad_id": 33992, "name": "COSMOS 2251 DEB", "group": "cosmos-2251-debris", "lat": 19.206834254435535, "lon": 148.40080543284415, "alt_km": 659.4313938615614, "timestamp": "2025-12-14T14:39:29.762398+00:00", "meta": {"OBJECT_NAME": "COSMOS 2251 DEB", "OBJECT_ID": "1993-036GB", "EPOCH": "2025-12-13T23:20:25.480032", "MEAN_MOTION": 14.66228688, "ECCENTRICITY": 0.00516388, "INCLINATION": 74.0241, "RA_OF_ASC_NODE": 335.359, "ARG_OF_PERICENTER": 92.8098, "MEAN_ANOMALY": 298.9852, "EPHEMERIS_TYPE": 0, "CLASSIFICATION_TYPE": "U", "NORAD_CAT_ID": 33992, "ELEMENT_SET_NO": 999, "REV_AT_EPOCH": 89143, "BSTAR": 0.00089192645, "MEAN_MOTION_DOT": 4.983e-05, "MEAN_MOTION_DDOT": 0}, "tle": {"line1": "1 33992U 93036GB  25347.97251713  .00004983  00000+0  89193-3 0  9999", "line2": "2 33992  74.0241 335.3590 0051638  92.8098 298.9852 14.66228688891432"}}, "geometry": {"type": "Point", "coordinates": [148.40080543284415, 19.206834254435535]}}, {"type": "Feature", "properties": {"norad_id": 33994, "name": "COSMOS 2251 DEB", "group": "cosmos-2251-debris", "lat": -72.77194408243665, "lon": 74.28470100006908, "alt_km": 752.3141767172037, "timestamp": "2025-12-14T14:39:29.762408+00:00", "meta": {"OBJECT_NAME": "COSMOS 2251 DEB", "OBJECT_ID": "1993-036GD", "EPOCH": "2025-12-13T22:59:07.700928", "MEAN_MOTION": 14.41215474, "ECCENTRICITY": 0.00236978, "INCLINATION": 74.0416, "RA_OF_ASC_NODE": 188.1558, "ARG_OF_PERICENTER": 322.2526, "MEAN_ANOMALY": 154.5967, "EPHEMERIS_TYPE": 0, "CLASSIFICATION_TYPE": "U", "NORAD_CAT_ID": 33994, "ELEMENT_SET_NO": 999, "REV_AT_EPOCH": 88437, "BSTAR": 0.00011960126, "MEAN_MOTION_DOT": 3.61e-06, "MEAN_MOTION_DDOT": 0}, "tle": {"line1": "1 33994U 93036GD  25347.95772802  .00000361  00000+0  11960-3 0  9999", "line2": "2 33994  74.0416 188.1558 0023697 322.2526 154.5967 14.41215474884377"}}, "geometry": {"type": "Point", "coordinates": [74.28470100006908, -72.77194408243665]}}, {"type": "Feature", "properties": {"norad_id": 33995, "name": "COSMOS 2251 DEB", "group": "cosmos-2251-debris", "lat": -59.398206277830866, "lon": 87.03447454702395, "alt_km": 824.3356154587127, "timestamp": "2025-12-14T14:39:29.762418+00:00", "meta": {"OBJECT_NAME": "COSMOS 2251 DEB", "OBJECT_ID": "1993-036GE", "EPOCH": "2025-12-13T18:52:34.369824", "MEAN_MOTION": 14.34780947, "ECCENTRICITY": 0.00600372, "INCLINATION": 74.0608, "RA_OF_ASC_NODE": 117.4362, "ARG_OF_PERICENTER": 131.5634, "MEAN_ANOMALY": 229.0689, "EPHEMERIS_TYPE": 0, "CLASSIFICATION_TYPE": "U", "NORAD_CAT_ID": 33995, "ELEMENT_SET_NO": 999, "REV_AT_EPOCH": 87534, "BSTAR": 0.0012089802, "MEAN_MOTION_DOT": 3.475e-05, "MEAN_MOTION_DDOT": 0}, "tle": {"line1": "1 33995U 93036GE  25347.78650891  .00003475  00000+0  12090-2 0  9997", "line2": "2 33995  74.0608 117.4362 0060037 131.5634 229.0689 14.34780947875349"}}, "geometry": {"type": "Point", "coordinates": [87.03447454702395, -59.398206277830866]}}, {"type": "Feature", "properties": {"norad_id": 33999, "name": "COSMOS 2251 DEB", "group": "cosmos-2251-debris", "lat": 57.072386904811964, "lon": -106.5021134705305, "alt_km": 597.6367064711349, "timestamp": "2025-12-14T14:39:29.762427+00:00", "meta": {"OBJECT_NAME": "COSMOS 2251 DEB", "OBJECT_ID": "1993-036GJ", "EPOCH": "2025-12-13T18:57:43.021728", "MEAN_MOTION": 14.83400065, "ECCENTRICITY": 0.00444632, "INCLINATION": 73.9187, "RA_OF_ASC_NODE": 228.6822, "ARG_OF_PERICENTER": 123.9837, "MEAN_ANOMALY": 236.5578, "EPHEMERIS_TYPE": 0, "CLASSIFICATION_TYPE": "U", "NORAD_CAT_ID": 33999, "ELEMENT_SET_NO": 999, "REV_AT_EPOCH": 89266, "BSTAR": 0.0015565396, "MEAN_MOTION_DOT": 0.00012987, "MEAN_MOTION_DDOT": 0}, "tle": {"line1": "1 33999U 93036GJ  25347.79008127  .00012987  00000+0  15565-2 0  9999", "line2": "2 33999  73.9187 228.6822 0044463 123.9837 236.5578 14.83400065892662"}}, "geometry": {"type": "Point", "coordinates": [-106.5021134705305, 57.072386904811964]}}]}